<?xml version="1.0" encoding="UTF-8"?>
<ndm xmlns:xsi="http://www.w3.org/2001/XMLSchema-instance" xsi:noNamespaceSchemaLocation="https://sanaregistry.org/r/ndmxml_unqualified/ndmxml-2.0.0-master-2.0.xsd">
<omm id="CCSDS_OMM_VERS" version="2.0">
<header><CREATION_DATE/><ORIGINATOR/></header><body><segment><metadata><OBJECT_NAME>ORBCOMM FM05</OBJECT_NAME><OBJECT_ID>1997-084F</OBJECT_ID><CENTER_NAME>EARTH</CENTER_NAME><REF_FRAME>TEME</REF_FRAME><TIME_SYSTEM>UTC</TIME_SYSTEM><MEAN_ELEMENT_THEORY>SGP4</MEAN_ELEMENT_THEORY></metadata><data><meanElements><EPOCH>2025-06-15T00:08:20.386464</EPOCH><MEAN_MOTION>14.45940634</MEAN_MOTION><ECCENTRICITY>.0001957</ECCENTRICITY><INCLINATION>45.0163</INCLINATION><RA_OF_ASC_NODE>18.5286</RA_OF_ASC_NODE><ARG_OF_PERICENTER>189.5859</ARG_OF_PERICENTER><MEAN_ANOMALY>170.4955</MEAN_ANOMALY></meanElements><tleParameters><EPHEMERIS_TYPE>0</EPHEMERIS_TYPE><CLASSIFICATION_TYPE>U</CLASSIFICATION_TYPE><NORAD_CAT_ID>25117</NORAD_CAT_ID><ELEMENT_SET_NO>999</ELEMENT_SET_NO><REV_AT_EPOCH>44123</REV_AT_EPOCH><BSTAR>.40981E-3</BSTAR><MEAN_MOTION_DOT>.1327E-4</MEAN_MOTION_DOT><MEAN_MOTION_DDOT>0</MEAN_MOTION_DDOT></tleParameters></data></segment></body></omm>
<omm id="CCSDS_OMM_VERS" version="2.0">
<header><CREATION_DATE/><ORIGINATOR/></header><body><segment><metadata><OBJECT_NAME>ORBCOMM FM07</OBJECT_NAME><OBJECT_ID>1997-084H</OBJECT_ID><CENTER_NAME>EARTH</CENTER_NAME><REF_FRAME>TEME</REF_FRAME><TIME_SYSTEM>UTC</TIME_SYSTEM><MEAN_ELEMENT_THEORY>SGP4</MEAN_ELEMENT_THEORY></metadata><data><meanElements><EPOCH>2025-06-15T00:16:18.480000</EPOCH><MEAN_MOTION>14.46068648</MEAN_MOTION><ECCENTRICITY>.0002807</ECCENTRICITY><INCLINATION>45.0152</INCLINATION><RA_OF_ASC_NODE>19.0110</RA_OF_ASC_NODE><ARG_OF_PERICENTER>186.4016</ARG_OF_PERICENTER><MEAN_ANOMALY>173.6800</MEAN_ANOMALY></meanElements><tleParameters><EPHEMERIS_TYPE>0</EPHEMERIS_TYPE><CLASSIFICATION_TYPE>U</CLASSIFICATION_TYPE><NORAD_CAT_ID>25119</NORAD_CAT_ID><ELEMENT_SET_NO>999</ELEMENT_SET_NO><REV_AT_EPOCH>44122</REV_AT_EPOCH><BSTAR>.37584E-3</BSTAR><MEAN_MOTION_DOT>.1209E-4</MEAN_MOTION_DOT><MEAN_MOTION_DDOT>0</MEAN_MOTION_DDOT></tleParameters></data></segment></body></omm>
<omm id="CCSDS_OMM_VERS" version="2.0">
<header><CREATION_DATE/><ORIGINATOR/></header><body><segment><metadata><OBJECT_NAME>ORBCOMM FM03</OBJECT_NAME><OBJECT_ID>1998-007B</OBJECT_ID><CENTER_NAME>EARTH</CENTER_NAME><REF_FRAME>TEME</REF_FRAME><TIME_SYSTEM>UTC</TIME_SYSTEM><MEAN_ELEMENT_THEORY>SGP4</MEAN_ELEMENT_THEORY></metadata><data><meanElements><EPOCH>2025-06-14T16:24:53.031168</EPOCH><MEAN_MOTION>14.34504774</MEAN_MOTION><ECCENTRICITY>.0046433</ECCENTRICITY><INCLINATION>107.9652</INCLINATION><RA_OF_ASC_NODE>130.4558</RA_OF_ASC_NODE><ARG_OF_PERICENTER>254.5695</ARG_OF_PERICENTER><MEAN_ANOMALY>105.0313</MEAN_ANOMALY></meanElements><tleParameters><EPHEMERIS_TYPE>0</EPHEMERIS_TYPE><CLASSIFICATION_TYPE>U</CLASSIFICATION_TYPE><NORAD_CAT_ID>25158</NORAD_CAT_ID><ELEMENT_SET_NO>999</ELEMENT_SET_NO><REV_AT_EPOCH>42368</REV_AT_EPOCH><BSTAR>.36973E-3</BSTAR><MEAN_MOTION_DOT>.924E-5</MEAN_MOTION_DOT><MEAN_MOTION_DDOT>0</MEAN_MOTION_DDOT></tleParameters></data></segment></body></omm>
<omm id="CCSDS_OMM_VERS" version="2.0">
<header><CREATION_DATE/><ORIGINATOR/></header><body><segment><metadata><OBJECT_NAME>ORBCOMM FM04</OBJECT_NAME><OBJECT_ID>1998-007C</OBJECT_ID><CENTER_NAME>EARTH</CENTER_NAME><REF_FRAME>TEME</REF_FRAME><TIME_SYSTEM>UTC</TIME_SYSTEM><MEAN_ELEMENT_THEORY>SGP4</MEAN_ELEMENT_THEORY></metadata><data><meanElements><EPOCH>2025-06-14T21:03:57.468672</EPOCH><MEAN_MOTION>14.34752942</MEAN_MOTION><ECCENTRICITY>.0042174</ECCENTRICITY><INCLINATION>107.9641</INCLINATION><RA_OF_ASC_NODE>134.0738</RA_OF_ASC_NODE><ARG_OF_PERICENTER>251.7999</ARG_OF_PERICENTER><MEAN_ANOMALY>107.8547</MEAN_ANOMALY></meanElements><tleParameters><EPHEMERIS_TYPE>0</EPHEMERIS_TYPE><CLASSIFICATION_TYPE>U</CLASSIFICATION_TYPE><NORAD_CAT_ID>25159</NORAD_CAT_ID><ELEMENT_SET_NO>999</ELEMENT_SET_NO><REV_AT_EPOCH>42389</REV_AT_EPOCH><BSTAR>.32346E-3</BSTAR><MEAN_MOTION_DOT>.794E-5</MEAN_MOTION_DOT><MEAN_MOTION_DDOT>0</MEAN_MOTION_DDOT></tleParameters></data></segment></body></omm>
<omm id="CCSDS_OMM_VERS" version="2.0">
<header><CREATION_DATE/><ORIGINATOR/></header><body><segment><metadata><OBJECT_NAME>ORBCOMM FM17</OBJECT_NAME><OBJECT_ID>1998-046A</OBJECT_ID><CENTER_NAME>EARTH</CENTER_NAME><REF_FRAME>TEME</REF_FRAME><TIME_SYSTEM>UTC</TIME_SYSTEM><MEAN_ELEMENT_THEORY>SGP4</MEAN_ELEMENT_THEORY></metadata><data><meanElements><EPOCH>2025-06-14T16:24:12.716064</EPOCH><MEAN_MOTION>14.35093729</MEAN_MOTION><ECCENTRICITY>.00045</ECCENTRICITY><INCLINATION>44.9944</INCLINATION><RA_OF_ASC_NODE>269.4224</RA_OF_ASC_NODE><ARG_OF_PERICENTER>208.4515</ARG_OF_PERICENTER><MEAN_ANOMALY>151.6086</MEAN_ANOMALY></meanElements><tleParameters><EPHEMERIS_TYPE>0</EPHEMERIS_TYPE><CLASSIFICATION_TYPE>U</CLASSIFICATION_TYPE><NORAD_CAT_ID>25413</NORAD_CAT_ID><ELEMENT_SET_NO>999</ELEMENT_SET_NO><REV_AT_EPOCH>40281</REV_AT_EPOCH><BSTAR>.24753E-3</BSTAR><MEAN_MOTION_DOT>.572E-5</MEAN_MOTION_DOT><MEAN_MOTION_DDOT>0</MEAN_MOTION_DDOT></tleParameters></data></segment></body></omm>
<omm id="CCSDS_OMM_VERS" version="2.0">
<header><CREATION_DATE/><ORIGINATOR/></header><body><segment><metadata><OBJECT_NAME>ORBCOMM FM19</OBJECT_NAME><OBJECT_ID>1998-046C</OBJECT_ID><CENTER_NAME>EARTH</CENTER_NAME><REF_FRAME>TEME</REF_FRAME><TIME_SYSTEM>UTC</TIME_SYSTEM><MEAN_ELEMENT_THEORY>SGP4</MEAN_ELEMENT_THEORY></metadata><data><meanElements><EPOCH>2025-06-15T00:16:13.976832</EPOCH><MEAN_MOTION>14.38362014</MEAN_MOTION><ECCENTRICITY>.0005907</ECCENTRICITY><INCLINATION>44.9924</INCLINATION><RA_OF_ASC_NODE>187.3270</RA_OF_ASC_NODE><ARG_OF_PERICENTER>269.0127</ARG_OF_PERICENTER><MEAN_ANOMALY>124.5717</MEAN_ANOMALY></meanElements><tleParameters><EPHEMERIS_TYPE>0</EPHEMERIS_TYPE><CLASSIFICATION_TYPE>U</CLASSIFICATION_TYPE><NORAD_CAT_ID>25415</NORAD_CAT_ID><ELEMENT_SET_NO>999</ELEMENT_SET_NO><REV_AT_EPOCH>40409</REV_AT_EPOCH><BSTAR>.30919E-3</BSTAR><MEAN_MOTION_DOT>.809E-5</MEAN_MOTION_DOT><MEAN_MOTION_DDOT>0</MEAN_MOTION_DDOT></tleParameters></data></segment></body></omm>

</ndm>
