ORBCOMM FM05            
1 25117U 97084F   25166.00579151  .00001327  00000+0  40981-3 0  9999
2 25117  45.0163  18.5286 0001957 189.5859 170.4955 14.45940634441239
ORBCOMM FM07            
1 25119U 97084H   25166.01132500  .00001209  00000+0  37584-3 0  9999
2 25119  45.0152  19.0110 0002807 186.4016 173.6800 14.46068648441227
ORBCOMM FM03            
1 25158U 98007B   25165.68394712  .00000924  00000+0  36973-3 0  9999
2 25158 107.9652 130.4558 0046433 254.5695 105.0313 14.34504774423680
ORBCOMM FM04            
1 25159U 98007C   25165.87774848  .00000794  00000+0  32346-3 0  9998
2 25159 107.9641 134.0738 0042174 251.7999 107.8547 14.34752942423897
ORBCOMM FM17            
1 25413U 98046A   25165.68348051  .00000572  00000+0  24753-3 0  9993
2 25413  44.9944 269.4224 0004500 208.4515 151.6086 14.35093729402819
ORBCOMM FM19            
1 25415U 98046C   25166.01127288  .00000809  00000+0  30919-3 0  9994
2 25415  44.9924 187.3270 0005907 269.0127 124.5717 14.38362014404093
